*******************************************************************************
 Revised: Sep 01, 2021            STEREO-A Spacecraft                      -234
                              http://stereo.gsfc.nasa.gov/

 BACKGROUND:
  STEREO (Solar TErrestrial RElations Observatory) is the third mission in 
  NASA's Solar Terrestrial Probes program (STP). This two-year mission will use
  two nearly identical space-based observatories - one ahead of Earth in its 
  orbit, the other trailing behind - to provide stereoscopic measurements to 
  study the Sun and the nature of coronal mass ejections (CMEs).

 OBJECTIVES:
  * Understand the causes and mechanisms of coronal mass ejection (CME) 
     initiation.
  * Characterize the propagation of CMEs through the heliosphere.
  * Discover the mechanisms and sites of energetic particle acceleration in 
     the low corona and the interplanetary medium.
  * Improve the determination of the structure of the ambient solar wind. 

 SPACECRAFT:
  Launch (Delta II 7925-10L) = October 26, 2006 @ 1:53 UTC
  Mission end                = 2 year nominal mission after launch
  Dimensions                 = 1.14m x 1.22m (launch), 6.47m x 2.03m (deployed)
  Launch Mass                = 620 kg  (includes propellant)
  Power consumption          = 475 watts
  Data downlink              = 720 kilobits/sec
  Memory                     = 1 GB
  Attitude                   = control within 7", knowledge within 0.1"

 INSTRUMENTS (4 packages on each spacecraft):
  * Sun Earth Connection Coronal and Heliospheric Investigation (SECCHI)
  * STEREO/WAVES (SWAVES) radio burst tracker
  * In-situ Measurements of Particles and CME Transients (IMPACT)
  * PLAsma and SupraThermal Ion Composition (PLASTIC) 

 ORBIT:
  STEREO-A and STEREO-B will be launched together, then separate. The Moon's 
  gravity will be used to redirect the observatories to their appropriate 
  orbits, something the launch vehicle alone is not able to do.

  For the first three months after launch, the two observatories will fly in 
  highly elliptical orbits extending from very close to Earth to just beyond 
  the Moon's orbit. STEREO Mission Operations personnel at APL will 
  synchronize spacecraft orbits so that about two months after launch they 
  encounter the Moon, at which time one of them is close enough to use the 
  Moon's gravity to redirect it to a position "ahead"/leading the Earth. 
  Approximately one month later, the second observatory will encounter the 
  Moon again and be redirected to its orbit "behind"/trailing the Earth. 

 POST-LAUNCH SPACECRAFT TRAJECTORY: 
  Fit to tracking data until 2021-Aug-20, planning prediction thereafter.

  Trajectory name                    Start        Stop
  ---------------------------------  -----------  -----------
  ahead_2006_350_01.depm             2006-Oct-26  2006-Dec-15
  ahead_2008_037_01.depm             2006-Dec-15  2008-Jan-21
  ahead_2010_208_01.depm             2008-Jan-21  2010-Jul-16
  ahead_2012_138_01.depm             2010-Jul-16  2012-Apr-18
  ahead_2013_130_01.depm             2012-Apr-18  2013-Apr-25
  ahead_2015_219_01.depm             2013-Apr-25  2015-Jul-23
  ahead_2018_019_01.depm             2015-Jul-23  2017-Dec-21
  ahead_2020_224_01.depm             2017-Dec-21  2020-Aug-11
  ahead_2021_232_01.depm             2020-Aug-11  2021-Aug-20
  ahead_2021_232_01.epm              2021-Aug-20  2021-Dec-18
*******************************************************************************


*******************************************************************************
Ephemeris / WWW_USER Fri Oct 22 17:17:52 2021 Pasadena, USA      / Horizons    
*******************************************************************************
Target body name: STEREO-A (spacecraft) (-234)    {source: STEREO-A_merged}
Center body name: Sun (10)                        {source: DE441}
Center-site name: BODYCENTRIC
*******************************************************************************
Start time      : A.D. 2017-Jan-01 00:09:00.0000 UT      
Stop  time      : A.D. 2017-Dec-31 23:49:00.0000 UT      
Step-size       : 40 minutes
*******************************************************************************
Target pole/equ : No model available
Target radii    : (unavailable)                                                
Center geodetic : 0.00000000,0.00000000,0.0000000 {E-lon(deg),Lat(deg),Alt(km)}
Center cylindric: 0.00000000,0.00000000,0.0000000 {E-lon(deg),Dxy(km),Dz(km)}
Center pole/equ : IAU_SUN                         {East-longitude positive}
Center radii    : 696000.0 x 696000.0 x 696000.0 k{Equator, meridian, pole}    
Target primary  : Earth
Vis. interferer : None
Rel. light bend : Sun                             {source: DE441}
Rel. lght bnd GM: 1.3271E+11 km^3/s^2                                          
Atmos refraction: NO (AIRLESS)
RA format       : HMS
Time format     : CAL 
EOP file        : eop.211021.p220114                                           
EOP coverage    : DATA-BASED 1962-JAN-20 TO 2021-OCT-21. PREDICTS-> 2022-JAN-13
Units conversion: 1 au= 149597870.700 km, c= 299792.458 km/s, 1 day= 86400.0 s 
Table cut-offs 1: Elevation (-90.0deg=NO ),Airmass     n.a.    , Daylight (NO )
Table cut-offs 2: Solar elongation (  0.0,180.0=NO ),Local Hour Angle( 0.0=NO )
Table cut-offs 3: RA/DEC angular rate (     0.0=NO )                           
*******************************************************************************
 Date__(UT)__HR:MN     R.A._____(ICRF)_____DEC             delta      deldot
****************************************************************************
$$SOE
 2017-Jan-15 05:29     22 14 09.54 -10 48 50.6  0.95669373977297   0.0717490
 2017-Jan-15 06:09     22 14 16.24 -10 48 13.1  0.95669489151191   0.0718324
 2017-Jan-15 06:49     22 14 22.94 -10 47 35.6  0.95669604458894   0.0719158
 2017-Jan-15 07:29     22 14 29.64 -10 46 58.1  0.95669719900386   0.0719992
 2017-Jan-15 08:09     22 14 36.34 -10 46 20.5  0.95669835475628   0.0720826
 2017-Jan-15 08:49     22 14 43.03 -10 45 43.0  0.95669951184591   0.0721659
 2017-Jan-15 09:29     22 14 49.73 -10 45 05.4  0.95670067027249   0.0722492
 2017-Jan-15 10:09     22 14 56.43 -10 44 27.9  0.95670183003568   0.0723325
 2017-Jan-15 10:49     22 15 03.13 -10 43 50.3  0.95670299113517   0.0724158
 2017-Jan-15 11:29     22 15 09.82 -10 43 12.7  0.95670415357064   0.0724991
 2017-Jan-15 12:09     22 15 16.52 -10 42 35.1  0.95670531734181   0.0725823
 2017-Jan-15 12:49     22 15 23.22 -10 41 57.5  0.95670648244841   0.0726656
 2017-Jan-15 13:29     22 15 29.91 -10 41 19.9  0.95670764889005   0.0727488
 2017-Jan-15 14:09     22 15 36.60 -10 40 42.3  0.95670881666644   0.0728320
 2017-Jan-15 14:49     22 15 43.30 -10 40 04.7  0.95670998577737   0.0729151
 2017-Jan-15 15:29     22 15 49.99 -10 39 27.0  0.95671115622238   0.0729983
 2017-Jan-15 16:09     22 15 56.69 -10 38 49.4  0.95671232800128   0.0730814
 2017-Jan-15 16:49     22 16 03.38 -10 38 11.7  0.95671350111373   0.0731645
 2017-Jan-15 17:29     22 16 10.07 -10 37 34.1  0.95671467555940   0.0732476
 2017-Jan-15 18:09     22 16 16.76 -10 36 56.4  0.95671585133800   0.0733307
 2017-Jan-15 18:49     22 16 23.45 -10 36 18.7  0.95671702844916   0.0734138
 2017-Jan-15 19:29     22 16 30.15 -10 35 41.0  0.95671820689268   0.0734968
 2017-Jan-15 20:09     22 16 36.84 -10 35 03.3  0.95671938666818   0.0735798
 2017-Jan-15 20:49     22 16 43.53 -10 34 25.6  0.95672056777536   0.0736628
 2017-Jan-15 21:29     22 16 50.21 -10 33 47.9  0.95672175021393   0.0737458
 2017-Jan-15 22:09     22 16 56.90 -10 33 10.2  0.95672293398352   0.0738288
 2017-Jan-15 22:49     22 17 03.59 -10 32 32.5  0.95672411908386   0.0739117
 2017-Jan-15 23:29     22 17 10.28 -10 31 54.7  0.95672530551467   0.0739946
 2017-Jan-16 00:09     22 17 16.97 -10 31 17.0  0.95672649327555   0.0740775
 2017-Jan-16 00:49     22 17 23.65 -10 30 39.2  0.95672768236625   0.0741604
 2017-Jan-16 01:29     22 17 30.34 -10 30 01.4  0.95672887278650   0.0742432
 2017-Jan-16 02:09     22 17 37.03 -10 29 23.7  0.95673006453587   0.0743261
 2017-Jan-16 02:49     22 17 43.71 -10 28 45.9  0.95673125761413   0.0744089
 2017-Jan-16 03:29     22 17 50.40 -10 28 08.1  0.95673245202096   0.0744917
 2017-Jan-16 04:09     22 17 57.08 -10 27 30.3  0.95673364775597   0.0745745
 2017-Jan-16 04:49     22 18 03.77 -10 26 52.5  0.95673484481898   0.0746573
 2017-Jan-16 05:29     22 18 10.45 -10 26 14.7  0.95673604320954   0.0747400
 2017-Jan-16 06:09     22 18 17.13 -10 25 36.8  0.95673724292743   0.0748227
 2017-Jan-16 06:49     22 18 23.82 -10 24 59.0  0.95673844397228   0.0749054
 2017-Jan-16 07:29     22 18 30.50 -10 24 21.2  0.95673964634377   0.0749881
 2017-Jan-16 08:09     22 18 37.18 -10 23 43.3  0.95674085004163   0.0750708
 2017-Jan-16 08:49     22 18 43.86 -10 23 05.5  0.95674205506546   0.0751534
 2017-Jan-16 09:29     22 18 50.54 -10 22 27.6  0.95674326141506   0.0752360
 2017-Jan-16 10:09     22 18 57.22 -10 21 49.7  0.95674446909004   0.0753187
 2017-Jan-16 10:49     22 19 03.90 -10 21 11.8  0.95674567809009   0.0754012
 2017-Jan-16 11:29     22 19 10.58 -10 20 33.9  0.95674688841489   0.0754838
 2017-Jan-16 12:09     22 19 17.26 -10 19 56.0  0.95674810006411   0.0755663
 2017-Jan-16 12:49     22 19 23.94 -10 19 18.1  0.95674931303746   0.0756489
 2017-Jan-16 13:29     22 19 30.62 -10 18 40.2  0.95675052733458   0.0757314
 2017-Jan-16 14:09     22 19 37.30 -10 18 02.3  0.95675174295517   0.0758139
 2017-Jan-16 14:49     22 19 43.98 -10 17 24.3  0.95675295989895   0.0758963
 2017-Jan-16 15:29     22 19 50.65 -10 16 46.4  0.95675417816558   0.0759788
 2017-Jan-16 16:09     22 19 57.33 -10 16 08.4  0.95675539775465   0.0760612
 2017-Jan-16 16:49     22 20 04.00 -10 15 30.5  0.95675661866598   0.0761436
 2017-Jan-16 17:29     22 20 10.68 -10 14 52.5  0.95675784089917   0.0762260
 2017-Jan-16 18:09     22 20 17.35 -10 14 14.5  0.95675906445390   0.0763083
 2017-Jan-16 18:49     22 20 24.03 -10 13 36.5  0.95676028932983   0.0763907
 2017-Jan-16 19:29     22 20 30.70 -10 12 58.5  0.95676151552671   0.0764730
 2017-Jan-16 20:09     22 20 37.38 -10 12 20.5  0.95676274304408   0.0765553
 2017-Jan-16 20:49     22 20 44.05 -10 11 42.5  0.95676397188178   0.0766376
 2017-Jan-16 21:29     22 20 50.72 -10 11 04.5  0.95676520203942   0.0767199
 2017-Jan-16 22:09     22 20 57.39 -10 10 26.5  0.95676643351667   0.0768021
 2017-Jan-16 22:49     22 21 04.07 -10 09 48.4  0.95676766631316   0.0768844
 2017-Jan-16 23:29     22 21 10.74 -10 09 10.4  0.95676890042861   0.0769666
